{"type": "FeatureCollection", "features": [ {"type": "Feature", "properties": {"norad_id": 60989, "name": "SENTINEL-2C", "group": "resource", "lat": 77.88666634812849, "lon": 21.991214375224633, "alt_km": 780.8313463524782, "timestamp": "2025-12-20T05:41:49.676206+00:00", "meta": {"OBJECT_NAME": "SENTINEL-2C", "OBJECT_ID": "2024-157A", "EPOCH": "2025-12-19T22:36:17.460864", "MEAN_MOTION": 14.30820183, "ECCENTRICITY": 0.00012146, "INCLINATION": 98.5676, "RA_OF_ASC_NODE": 66.3206, "ARG_OF_PERICENTER": 96.0586, "MEAN_ANOMALY": 264.0735, "EPHEMERIS_TYPE": 0, "CLASSIFICATION_TYPE": "U", "NORAD_CAT_ID": 60989, "ELEMENT_SET_NO": 999, "REV_AT_EPOCH": 6735, "BSTAR": 5.5747215e-05, "MEAN_MOTION_DOT": 1.03e-06, "MEAN_MOTION_DDOT": 0}, "tle": {"line1": "1 60989U 24157A   25353.94186876  .00000103  00000+0  55747-4 0  9993", "line2": "2 60989  98.5676  66.3206 0001214  96.0586 264.0735 14.30820183 67358"}}, "geometry": {"type": "Point", "coordinates": [21.991214375224633, 77.88666634812849]}}, {"type": "Feature", "properties": {"norad_id": 61735, "name": "IONOSFERA-M 1", "group": "resource", "lat": 49.667538507846956, "lon": 54.46655062790687, "alt_km": 811.8263296893592, "timestamp": "2025-12-20T05:41:49.676235+00:00", "meta": {"OBJECT_NAME": "IONOSFERA-M 1", "OBJECT_ID": "2024-199A", "EPOCH": "2025-12-19T22:20:21.341184", "MEAN_MOTION": 14.22715492, "ECCENTRICITY": 6.143e-05, "INCLINATION": 98.7399, "RA_OF_ASC_NODE": 223.7237, "ARG_OF_PERICENTER": 12.8432, "MEAN_ANOMALY": 347.2762, "EPHEMERIS_TYPE": 0, "CLASSIFICATION_TYPE": "U", "NORAD_CAT_ID": 61735, "ELEMENT_SET_NO": 999, "REV_AT_EPOCH": 10221, "BSTAR": 3.8821726e-05, "MEAN_MOTION_DOT": 4.3e-07, "MEAN_MOTION_DDOT": 0}, "tle": {"line1": "1 61735U 24199A   25353.93080256  .00000043  00000+0  38822-4 0  9991", "line2": "2 61735  98.7399 223.7237 0000614  12.8432 347.2762 14.22715492102210"}}, "geometry": {"type": "Point", "coordinates": [54.46655062790687, 49.667538507846956]}}, {"type": "Feature", "properties": {"norad_id": 61736, "name": "IONOSFERA-M 2", "group": "resource", "lat": -47.18418086270104, "lon": -126.50285468699012, "alt_km": 824.0384777243216, "timestamp": "2025-12-20T05:41:49.676247+00:00", "meta": {"OBJECT_NAME": "IONOSFERA-M 2", "OBJECT_ID": "2024-199B", "EPOCH": "2025-12-19T21:28:57.587808", "MEAN_MOTION": 14.22717672, "ECCENTRICITY": 0.00017952, "INCLINATION": 98.7398, "RA_OF_ASC_NODE": 223.6006, "ARG_OF_PERICENTER": 101.5104, "MEAN_ANOMALY": 258.6275, "EPHEMERIS_TYPE": 0, "CLASSIFICATION_TYPE": "U", "NORAD_CAT_ID": 61736, "ELEMENT_SET_NO": 999, "REV_AT_EPOCH": 10533, "BSTAR": 3.6775989e-05, "MEAN_MOTION_DOT": 3.8e-07, "MEAN_MOTION_DDOT": 0}, "tle": {"line1": "1 61736U 24199B   25353.89511097  .00000038  00000+0  36776-4 0  9999", "line2": "2 61736  98.7398 223.6006 0001795 101.5104 258.6275 14.22717672105338"}}, "geometry": {"type": "Point", "coordinates": [-126.50285468699012, -47.18418086270104]}}, {"type": "Feature", "properties": {"norad_id": 63772, "name": "BIOMASS", "group": "resource", "lat": -81.65501033761723, "lon": -105.56788713151876, "alt_km": 677.023933718875, "timestamp": "2025-12-20T05:41:49.676258+00:00", "meta": {"OBJECT_NAME": "BIOMASS", "OBJECT_ID": "2025-090A", "EPOCH": "2025-12-19T10:27:38.474208", "MEAN_MOTION": 14.67534976, "ECCENTRICITY": 0.000107, "INCLINATION": 98.07, "RA_OF_ASC_NODE": 178.3481, "ARG_OF_PERICENTER": 79.7157, "MEAN_ANOMALY": 280.4168, "EPHEMERIS_TYPE": 0, "CLASSIFICATION_TYPE": "U", "NORAD_CAT_ID": 63772, "ELEMENT_SET_NO": 999, "REV_AT_EPOCH": 3432, "BSTAR": 0.00014315, "MEAN_MOTION_DOT": 7.64e-06, "MEAN_MOTION_DDOT": 0}, "tle": {"line1": "1 63772U 25090A   25353.43586197  .00000764  00000+0  14315-3 0  9995", "line2": "2 63772  98.0700 178.3481 0001070  79.7157 280.4168 14.67534976 34320"}}, "geometry": {"type": "Point", "coordinates": [-105.56788713151876, -81.65501033761723]}}, {"type": "Feature", "properties": {"norad_id": 64694, "name": "GOSAT-GW (IBUKI GW)", "group": "resource", "lat": 56.73817600100837, "lon": 122.06434849538064, "alt_km": 662.6308266990673, "timestamp": "2025-12-20T05:41:49.676268+00:00", "meta": {"OBJECT_NAME": "GOSAT-GW (IBUKI GW)", "OBJECT_ID": "2025-141A", "EPOCH": "2025-12-19T22:35:47.099904", "MEAN_MOTION": 14.67564581, "ECCENTRICITY": 0.00014403, "INCLINATION": 98.0434, "RA_OF_ASC_NODE": 289.324, "ARG_OF_PERICENTER": 83.9364, "MEAN_ANOMALY": 276.2005, "EPHEMERIS_TYPE": 0, "CLASSIFICATION_TYPE": "U", "NORAD_CAT_ID": 64694, "ELEMENT_SET_NO": 999, "REV_AT_EPOCH": 2555, "BSTAR": 7.6145585e-05, "MEAN_MOTION_DOT": 3.84e-06, "MEAN_MOTION_DDOT": 0}, "tle": {"line1": "1 64694U 25141A   25353.94151736  .00000384  00000+0  76146-4 0  9998", "line2": "2 64694  98.0434 289.3240 0001440  83.9364 276.2005 14.67564581 25555"}}, "geometry": {"type": "Point", "coordinates": [122.06434849538064, 56.73817600100837]}}, {"type": "Feature", "properties": {"norad_id": 64876, "name": "IONOSFERA-M 3", "group": "resource", "lat": -37.657210354254175, "lon": -37.41855838618316, "alt_km": 826.7187413586671, "timestamp": "2025-12-20T05:41:49.676278+00:00", "meta": {"OBJECT_NAME": "IONOSFERA-M 3", "OBJECT_ID": "2025-155A", "EPOCH": "2025-12-19T21:25:45.690816", "MEAN_MOTION": 14.21442671, "ECCENTRICITY": 0.00020322, "INCLINATION": 98.5792, "RA_OF_ASC_NODE": 315.5568, "ARG_OF_PERICENTER": 48.5719, "MEAN_ANOMALY": 311.5633, "EPHEMERIS_TYPE": 0, "CLASSIFICATION_TYPE": "U", "NORAD_CAT_ID": 64876, "ELEMENT_SET_NO": 999, "REV_AT_EPOCH": 2093, "BSTAR": 3.8543377e-05, "MEAN_MOTION_DOT": 4.2e-07, "MEAN_MOTION_DDOT": 0}, "tle": {"line1": "1 64876U 25155A   25353.89288994  .00000042  00000+0  38543-4 0  9996", "line2": "2 64876  98.5792 315.5568 0002032  48.5719 311.5633 14.21442671 20935"}}, "geometry": {"type": "Point", "coordinates": [-37.41855838618316, -37.657210354254175]}}, {"type": "Feature", "properties": {"norad_id": 64877, "name": "IONOSFERA-M 4", "group": "resource", "lat": 36.76005484688115, "lon": 142.2858504247045, "alt_km": 817.775583894424, "timestamp": "2025-12-20T05:41:49.676289+00:00", "meta": {"OBJECT_NAME": "IONOSFERA-M 4", "OBJECT_ID": "2025-155B", "EPOCH": "2025-12-19T22:16:14.924064", "MEAN_MOTION": 14.21443833, "ECCENTRICITY": 0.00014295, "INCLINATION": 98.5791, "RA_OF_ASC_NODE": 315.5103, "ARG_OF_PERICENTER": 56.2276, "MEAN_ANOMALY": 303.9038, "EPHEMERIS_TYPE": 0, "CLASSIFICATION_TYPE": "U", "NORAD_CAT_ID": 64877, "ELEMENT_SET_NO": 999, "REV_AT_EPOCH": 2093, "BSTAR": 3.8455484e-05, "MEAN_MOTION_DOT": 4.1e-07, "MEAN_MOTION_DDOT": 0}, "tle": {"line1": "1 64877U 25155B   25353.92795051  .00000041  00000+0  38455-4 0  9999", "line2": "2 64877  98.5791 315.5103 0001429  56.2276 303.9038 14.21443833 20938"}}, "geometry": {"type": "Point", "coordinates": [142.2858504247045, 36.76005484688115]}}, {"type": "Feature", "properties": {"norad_id": 64899, "name": "MICROCARB", "group": "resource", "lat": -41.11663896051674, "lon": -117.59050110969847, "alt_km": 663.0535835478613, "timestamp": "2025-12-20T05:41:49.676299+00:00", "meta": {"OBJECT_NAME": "MICROCARB", "OBJECT_ID": "2025-156A", "EPOCH": "2025-12-19T10:45:02.700288", "MEAN_MOTION": 14.72067357, "ECCENTRICITY": 0.0017459, "INCLINATION": 98.0019, "RA_OF_ASC_NODE": 68.6857, "ARG_OF_PERICENTER": 124.5488, "MEAN_ANOMALY": 235.737, "EPHEMERIS_TYPE": 0, "CLASSIFICATION_TYPE": "U", "NORAD_CAT_ID": 64899, "ELEMENT_SET_NO": 999, "REV_AT_EPOCH": 2152, "BSTAR": 8.8769e-05, "MEAN_MOTION_DOT": 5.09e-06, "MEAN_MOTION_DDOT": 0}, "tle": {"line1": "1 64899U 25156A   25353.44794792  .00000509  00000+0  88769-4 0  9994", "line2": "2 64899  98.0019  68.6857 0017459 124.5488 235.7370 14.72067357 21522"}}, "geometry": {"type": "Point", "coordinates": [-117.59050110969847, -41.11663896051674]}}, {"type": "Feature", "properties": {"norad_id": 64900, "name": "CO3D 3", "group": "resource", "lat": 59.2145041429214, "lon": -96.84162527843192, "alt_km": 498.829683190369, "timestamp": "2025-12-20T05:41:49.676309+00:00", "meta": {"OBJECT_NAME": "CO3D 3", "OBJECT_ID": "2025-156B", "EPOCH": "2025-12-19T22:51:09.470880", "MEAN_MOTION": 15.2019727, "ECCENTRICITY": 0.0001368, "INCLINATION": 97.4347, "RA_OF_ASC_NODE": 70.2162, "ARG_OF_PERICENTER": 79.9333, "MEAN_ANOMALY": 280.2056, "EPHEMERIS_TYPE": 0, "CLASSIFICATION_TYPE": "U", "NORAD_CAT_ID": 64900, "ELEMENT_SET_NO": 999, "REV_AT_EPOCH": 2230, "BSTAR": 0.00025130044, "MEAN_MOTION_DOT": 5.376e-05, "MEAN_MOTION_DDOT": 0}, "tle": {"line1": "1 64900U 25156B   25353.95219295  .00005376  00000+0  25130-3 0  9992", "line2": "2 64900  97.4347  70.2162 0001368  79.9333 280.2056 15.20197270 22309"}}, "geometry": {"type": "Point", "coordinates": [-96.84162527843192, 59.2145041429214]}}, {"type": "Feature", "properties": {"norad_id": 64901, "name": "CO3D 4", "group": "resource", "lat": 59.91701195391219, "lon": -96.47640419645374, "alt_km": 498.8347552725745, "timestamp": "2025-12-20T05:41:49.676319+00:00", "meta": {"OBJECT_NAME": "CO3D 4", "OBJECT_ID": "2025-156C", "EPOCH": "2025-12-19T14:57:26.055072", "MEAN_MOTION": 15.20230123, "ECCENTRICITY": 0.0001264, "INCLINATION": 97.434, "RA_OF_ASC_NODE": 69.8917, "ARG_OF_PERICENTER": 174.7354, "MEAN_ANOMALY": 185.3894, "EPHEMERIS_TYPE": 0, "CLASSIFICATION_TYPE": "U", "NORAD_CAT_ID": 64901, "ELEMENT_SET_NO": 999, "REV_AT_EPOCH": 2225, "BSTAR": 0.00021367, "MEAN_MOTION_DOT": 4.564e-05, "MEAN_MOTION_DDOT": 0}, "tle": {"line1": "1 64901U 25156C   25353.62321823  .00004564  00000+0  21367-3 0  9994", "line2": "2 64901  97.4340  69.8917 0001264 174.7354 185.3894 15.20230123 22251"}}, "geometry": {"type": "Point", "coordinates": [-96.47640419645374, 59.91701195391219]}}]}